[{"OBJECT_NAME":"STARLINK-11094 [DTC]","OBJECT_ID":"2024-088G","EPOCH":"2026-03-09T21:24:00.146304","MEAN_MOTION":15.69706371,"ECCENTRICITY":0.00011143,"INCLINATION":53.1569,"RA_OF_ASC_NODE":325.3012,"ARG_OF_PERICENTER":125.4369,"MEAN_ANOMALY":234.6753,"EPHEMERIS_TYPE":0,"CLASSIFICATION_TYPE":"U","NORAD_CAT_ID":59714,"ELEMENT_SET_NO":999,"REV_AT_EPOCH":10630,"BSTAR":4.3009652e-5,"MEAN_MOTION_DOT":4.624e-5,"MEAN_MOTION_DDOT":0},{"OBJECT_NAME":"THORAD AGENA D DEB","OBJECT_ID":"1970-025PF","EPOCH":"2026-03-08T02:58:32.488032","MEAN_MOTION":15.64290563,"ECCENTRICITY":0.00166136,"INCLINATION":99.9335,"RA_OF_ASC_NODE":127.481,"ARG_OF_PERICENTER":247.6747,"MEAN_ANOMALY":112.2743,"EPHEMERIS_TYPE":0,"CLASSIFICATION_TYPE":"U","NORAD_CAT_ID":17717,"ELEMENT_SET_NO":999,"REV_AT_EPOCH":15016,"BSTAR":0.0052904272,"MEAN_MOTION_DOT":0.00540965,"MEAN_MOTION_DDOT":0}]
